[{"OBJECT_NAME":"PAKTES 1A","OBJECT_ID":"2018-056A","EPOCH":"2026-03-05T17:26:49.478784","MEAN_MOTION":14.98522512,"ECCENTRICITY":0.0022314,"INCLINATION":98.1125,"RA_OF_ASC_NODE":216.9373,"ARG_OF_PERICENTER":92.6881,"MEAN_ANOMALY":267.6895,"EPHEMERIS_TYPE":0,"CLASSIFICATION_TYPE":"U","NORAD_CAT_ID":43529,"ELEMENT_SET_NO":999,"REV_AT_EPOCH":41642,"BSTAR":0.00036316,"MEAN_MOTION_DOT":4.304e-5,"MEAN_MOTION_DDOT":0},{"OBJECT_NAME":"PRSS-1","OBJECT_ID":"2018-056B","EPOCH":"2026-03-05T17:54:13.631040","MEAN_MOTION":14.8180299,"ECCENTRICITY":0.0001414,"INCLINATION":97.7924,"RA_OF_ASC_NODE":135.4477,"ARG_OF_PERICENTER":82.0163,"MEAN_ANOMALY":278.1211,"EPHEMERIS_TYPE":0,"CLASSIFICATION_TYPE":"U","NORAD_CAT_ID":43530,"ELEMENT_SET_NO":999,"REV_AT_EPOCH":41311,"BSTAR":0.00020766,"MEAN_MOTION_DOT":1.589e-5,"MEAN_MOTION_DDOT":0},{"OBJECT_NAME":"HAIYANG-1C","OBJECT_ID":"2018-068A","EPOCH":"2026-03-05T17:03:11.864736","MEAN_MOTION":14.34144042,"ECCENTRICITY":0.0011651,"INCLINATION":98.5285,"RA_OF_ASC_NODE":138.48,"ARG_OF_PERICENTER":46.252,"MEAN_ANOMALY":313.9627,"EPHEMERIS_TYPE":0,"CLASSIFICATION_TYPE":"U","NORAD_CAT_ID":43609,"ELEMENT_SET_NO":999,"REV_AT_EPOCH":39225,"BSTAR":0.000121,"MEAN_MOTION_DOT":2.95e-6,"MEAN_MOTION_DDOT":0},{"OBJECT_NAME":"SSTL S1-4","OBJECT_ID":"2018-071A","EPOCH":"2026-03-05T18:15:35.134848","MEAN_MOTION":14.96202404,"ECCENTRICITY":0.000177,"INCLINATION":97.5196,"RA_OF_ASC_NODE":300.5811,"ARG_OF_PERICENTER":106.7307,"MEAN_ANOMALY":253.4109,"EPHEMERIS_TYPE":0,"CLASSIFICATION_TYPE":"U","NORAD_CAT_ID":43618,"ELEMENT_SET_NO":999,"REV_AT_EPOCH":40747,"BSTAR":8.3462e-5,"MEAN_MOTION_DOT":8.86e-6,"MEAN_MOTION_DDOT":0},{"OBJECT_NAME":"HAIYANG-2B","OBJECT_ID":"2018-081A","EPOCH":"2026-03-05T19:05:14.871264","MEAN_MOTION":13.79306036,"ECCENTRICITY":0.0001081,"INCLINATION":99.333,"RA_OF_ASC_NODE":75.0944,"ARG_OF_PERICENTER":147.9508,"MEAN_ANOMALY":212.171,"EPHEMERIS_TYPE":0,"CLASSIFICATION_TYPE":"U","NORAD_CAT_ID":43655,"ELEMENT_SET_NO":999,"REV_AT_EPOCH":37067,"BSTAR":-0.0002214,"MEAN_MOTION_DOT":-2.71e-6,"MEAN_MOTION_DDOT":0},{"OBJECT_NAME":"CZ-4B R/B","OBJECT_ID":"2018-081B","EPOCH":"2026-03-05T16:39:56.123712","MEAN_MOTION":14.31820992,"ECCENTRICITY":0.020441,"INCLINATION":99.3719,"RA_OF_ASC_NODE":334.3668,"ARG_OF_PERICENTER":204.6564,"MEAN_ANOMALY":154.4739,"EPHEMERIS_TYPE":0,"CLASSIFICATION_TYPE":"U","NORAD_CAT_ID":43656,"ELEMENT_SET_NO":999,"REV_AT_EPOCH":38449,"BSTAR":7.3346e-5,"MEAN_MOTION_DOT":1.88e-6,"MEAN_MOTION_DDOT":0},{"OBJECT_NAME":"CFOSAT","OBJECT_ID":"2018-083A","EPOCH":"2026-03-05T19:45:47.947968","MEAN_MOTION":15.16309114,"ECCENTRICITY":0.000126,"INCLINATION":97.3638,"RA_OF_ASC_NODE":72.3851,"ARG_OF_PERICENTER":126.0321,"MEAN_ANOMALY":234.1029,"EPHEMERIS_TYPE":0,"CLASSIFICATION_TYPE":"U","NORAD_CAT_ID":43662,"ELEMENT_SET_NO":999,"REV_AT_EPOCH":40677,"BSTAR":4.8651e-5,"MEAN_MOTION_DOT":8.78e-6,"MEAN_MOTION_DDOT":0},{"OBJECT_NAME":"TEN-KOH","OBJECT_ID":"2018-084G","EPOCH":"2026-03-05T13:54:17.352864","MEAN_MOTION":15.02432201,"ECCENTRICITY":0.0011692,"INCLINATION":98.0789,"RA_OF_ASC_NODE":252.5939,"ARG_OF_PERICENTER":104.5407,"MEAN_ANOMALY":255.7114,"EPHEMERIS_TYPE":0,"CLASSIFICATION_TYPE":"U","NORAD_CAT_ID":43677,"ELEMENT_SET_NO":999,"REV_AT_EPOCH":40060,"BSTAR":0.00031907,"MEAN_MOTION_DOT":4.169e-5,"MEAN_MOTION_DDOT":0},{"OBJECT_NAME":"DIWATA-2B","OBJECT_ID":"2018-084H","EPOCH":"2026-03-05T17:16:16.738752","MEAN_MOTION":14.99935867,"ECCENTRICITY":0.0011367,"INCLINATION":98.1031,"RA_OF_ASC_NODE":256.5936,"ARG_OF_PERICENTER":139.3754,"MEAN_ANOMALY":220.8319,"EPHEMERIS_TYPE":0,"CLASSIFICATION_TYPE":"U","NORAD_CAT_ID":43678,"ELEMENT_SET_NO":999,"REV_AT_EPOCH":40070,"BSTAR":0.00021176,"MEAN_MOTION_DOT":2.567e-5,"MEAN_MOTION_DDOT":0},{"OBJECT_NAME":"STARS-AO","OBJECT_ID":"2018-084J","EPOCH":"2026-03-05T13:01:56.775072","MEAN_MOTION":15.15737917,"ECCENTRICITY":0.0002692,"INCLINATION":98.0614,"RA_OF_ASC_NODE":272.1444,"ARG_OF_PERICENTER":135.328,"MEAN_ANOMALY":224.8168,"EPHEMERIS_TYPE":0,"CLASSIFICATION_TYPE":"U","NORAD_CAT_ID":43679,"ELEMENT_SET_NO":999,"REV_AT_EPOCH":40176,"BSTAR":0.00048862,"MEAN_MOTION_DOT":9.247e-5,"MEAN_MOTION_DDOT":0},{"OBJECT_NAME":"AUTCUBE 2","OBJECT_ID":"2018-084K","EPOCH":"2026-03-05T12:05:18.998304","MEAN_MOTION":15.09269923,"ECCENTRICITY":0.0009782,"INCLINATION":98.0788,"RA_OF_ASC_NODE":265.175,"ARG_OF_PERICENTER":39.3973,"MEAN_ANOMALY":320.7964,"EPHEMERIS_TYPE":0,"CLASSIFICATION_TYPE":"U","NORAD_CAT_ID":43681,"ELEMENT_SET_NO":999,"REV_AT_EPOCH":40128,"BSTAR":0.00043607,"MEAN_MOTION_DOT":6.884e-5,"MEAN_MOTION_DDOT":0},{"OBJECT_NAME":"METOP-C","OBJECT_ID":"2018-087A","EPOCH":"2026-03-05T17:43:55.510752","MEAN_MOTION":14.21495517,"ECCENTRICITY":0.0002182,"INCLINATION":98.6773,"RA_OF_ASC_NODE":126.1788,"ARG_OF_PERICENTER":105.401,"MEAN_ANOMALY":254.7409,"EPHEMERIS_TYPE":0,"CLASSIFICATION_TYPE":"U","NORAD_CAT_ID":43689,"ELEMENT_SET_NO":999,"REV_AT_EPOCH":38013,"BSTAR":9.209e-5,"MEAN_MOTION_DOT":1.58e-6,"MEAN_MOTION_DDOT":0},{"OBJECT_NAME":"ES'HAIL 2","OBJECT_ID":"2018-090A","EPOCH":"2026-03-05T12:24:28.317024","MEAN_MOTION":1.00272028,"ECCENTRICITY":0.0002702,"INCLINATION":0.0102,"RA_OF_ASC_NODE":207.479,"ARG_OF_PERICENTER":172.6625,"MEAN_ANOMALY":355.0003,"EPHEMERIS_TYPE":0,"CLASSIFICATION_TYPE":"U","NORAD_CAT_ID":43700,"ELEMENT_SET_NO":999,"REV_AT_EPOCH":2663,"BSTAR":0,"MEAN_MOTION_DOT":1.37e-6,"MEAN_MOTION_DDOT":0},{"OBJECT_NAME":"MOHAMMED VI-B","OBJECT_ID":"2018-095A","EPOCH":"2026-03-05T17:38:17.768832","MEAN_MOTION":14.77119995,"ECCENTRICITY":0.0001192,"INCLINATION":97.9428,"RA_OF_ASC_NODE":138.5386,"ARG_OF_PERICENTER":88.3171,"MEAN_ANOMALY":271.8176,"EPHEMERIS_TYPE":0,"CLASSIFICATION_TYPE":"U","NORAD_CAT_ID":43717,"ELEMENT_SET_NO":999,"REV_AT_EPOCH":39291,"BSTAR":0.00013657,"MEAN_MOTION_DOT":9.14e-6,"MEAN_MOTION_DDOT":0},{"OBJECT_NAME":"HYSIS","OBJECT_ID":"2018-096A","EPOCH":"2026-03-05T17:50:54.684672","MEAN_MOTION":14.78646764,"ECCENTRICITY":0.0001735,"INCLINATION":97.9949,"RA_OF_ASC_NODE":132.2532,"ARG_OF_PERICENTER":101.9572,"MEAN_ANOMALY":258.1834,"EPHEMERIS_TYPE":0,"CLASSIFICATION_TYPE":"U","NORAD_CAT_ID":43719,"ELEMENT_SET_NO":999,"REV_AT_EPOCH":39213,"BSTAR":0.0002652,"MEAN_MOTION_DOT":1.891e-5,"MEAN_MOTION_DDOT":0},{"OBJECT_NAME":"COSMOS 2530 (RODNIK-S 16)","OBJECT_ID":"2018-097A","EPOCH":"2026-03-05T18:37:53.895936","MEAN_MOTION":12.42877995,"ECCENTRICITY":0.0018805,"INCLINATION":82.5116,"RA_OF_ASC_NODE":286.4835,"ARG_OF_PERICENTER":261.9159,"MEAN_ANOMALY":97.9787,"EPHEMERIS_TYPE":0,"CLASSIFICATION_TYPE":"U","NORAD_CAT_ID":43751,"ELEMENT_SET_NO":999,"REV_AT_EPOCH":32944,"BSTAR":0.00016886,"MEAN_MOTION_DOT":3.3e-7,"MEAN_MOTION_DDOT":0},{"OBJECT_NAME":"COSMOS 2531 (RODNIK-S 17)","OBJECT_ID":"2018-097B","EPOCH":"2026-03-05T17:17:49.609248","MEAN_MOTION":12.42909255,"ECCENTRICITY":0.0016037,"INCLINATION":82.5164,"RA_OF_ASC_NODE":287.5418,"ARG_OF_PERICENTER":282.1343,"MEAN_ANOMALY":77.794,"EPHEMERIS_TYPE":0,"CLASSIFICATION_TYPE":"U","NORAD_CAT_ID":43752,"ELEMENT_SET_NO":999,"REV_AT_EPOCH":32945,"BSTAR":0.00037761,"MEAN_MOTION_DOT":6.2e-7,"MEAN_MOTION_DDOT":0}]
