PAKTES 1A               
1 43529U 18056A   26064.72696156  .00004304  00000+0  36316-3 0  9995
2 43529  98.1125 216.9373 0022314  92.6881 267.6895 14.98522512416427
PRSS-1                  
1 43530U 18056B   26064.74599110  .00001589  00000+0  20766-3 0  9995
2 43530  97.7924 135.4477 0001414  82.0163 278.1211 14.81802990413110
HAIYANG-1C              
1 43609U 18068A   26064.71055399  .00000295  00000+0  12100-3 0  9994
2 43609  98.5285 138.4800 0011651  46.2520 313.9627 14.34144042392257
SSTL S1-4               
1 43618U 18071A   26064.76082332  .00000886  00000+0  83462-4 0  9996
2 43618  97.5196 300.5811 0001770 106.7307 253.4109 14.96202404407476
HAIYANG-2B              
1 43655U 18081A   26064.79531101 -.00000271  00000+0 -22140-3 0  9999
2 43655  99.3330  75.0944 0001081 147.9508 212.1710 13.79306036370670
CZ-4B R/B               
1 43656U 18081B   26064.69439958  .00000188  00000+0  73346-4 0  9996
2 43656  99.3719 334.3668 0204410 204.6564 154.4739 14.31820992384495
CFOSAT                  
1 43662U 18083A   26064.82347162  .00000878  00000+0  48651-4 0  9992
2 43662  97.3638  72.3851 0001260 126.0321 234.1029 15.16309114406775
TEN-KOH                 
1 43677U 18084G   26064.57936751  .00004169  00000+0  31907-3 0  9991
2 43677  98.0789 252.5939 0011692 104.5407 255.7114 15.02432201400600
DIWATA-2B               
1 43678U 18084H   26064.71963818  .00002567  00000+0  21176-3 0  9999
2 43678  98.1031 256.5936 0011367 139.3754 220.8319 14.99935867400705
STARS-AO                
1 43679U 18084J   26064.54301823  .00009247  00000+0  48862-3 0  9996
2 43679  98.0614 272.1444 0002692 135.3280 224.8168 15.15737917401769
AUTCUBE 2               
1 43681U 18084K   26064.50369211  .00006884  00000+0  43607-3 0  9996
2 43681  98.0788 265.1750 0009782  39.3973 320.7964 15.09269923401282
METOP-C                 
1 43689U 18087A   26064.73883693  .00000158  00000+0  92090-4 0  9996
2 43689  98.6773 126.1788 0002182 105.4010 254.7409 14.21495517380134
ES'HAIL 2               
1 43700U 18090A   26064.51699441  .00000137  00000+0  00000+0 0  9998
2 43700   0.0102 207.4790 0002702 172.6625 355.0003  1.00272028 26633
MOHAMMED VI-B           
1 43717U 18095A   26064.73492788  .00000914  00000+0  13657-3 0  9999
2 43717  97.9428 138.5386 0001192  88.3171 271.8176 14.77119995392917
HYSIS                   
1 43719U 18096A   26064.74368848  .00001891  00000+0  26520-3 0  9990
2 43719  97.9949 132.2532 0001735 101.9572 258.1834 14.78646764392134
COSMOS 2530 (RODNIK-S *)
1 43751U 18097A   26064.77631824  .00000033  00000+0  16886-3 0  9998
2 43751  82.5116 286.4835 0018805 261.9159  97.9787 12.42877995329449
COSMOS 2531 (RODNIK-S *)
1 43752U 18097B   26064.72071307  .00000062  00000+0  37761-3 0  9995
2 43752  82.5164 287.5418 0016037 282.1343  77.7940 12.42909255329450
